ORBCOMM FM37            
1 33064U 08031E   25079.94352006  .00006077  00000+0  83601-3 0  9990
2 33064  48.4397  43.0227 0005993 351.1287  49.7177 14.79258201900984
ORBCOMM FM40            
1 33065U 08031F   25079.92448293  .00008043  00000+0  10437-2 0  9994
2 33065  48.4422  28.5865 0007146   4.3719  65.1045 14.81366371901077
VESSELSAT 1             
1 37840U 11058C   25079.86405568  .00000581  00000+0  17195-3 0  9991
2 37840  19.9618 268.3271 0013582 295.3166  64.5831 14.11325400694049
ORBCOMM FM109           
1 40086U 14040A   25079.37925443  .00002535  00000+0  58371-3 0  9998
2 40086  47.0021  75.6602 0002794 291.1700  68.8887 14.57936739568101
ORBCOMM FM107           
1 40087U 14040B   25079.41176664  .00002758  00000+0  63098-3 0  9996
2 40087  47.0038  76.5011 0002054 259.8693 100.1961 14.57999037568186
ORBCOMM FM106           
1 40088U 14040C   25079.90109920  .00003843  00000+0  67744-3 0  9990
2 40088  47.0591 263.3401 0016515  15.3126 344.8261 14.69098064570493
ORBCOMM FM111           
1 40089U 14040D   25079.47016676  .00007611  00000+0  88718-3 0  9999
2 40089  46.9997 127.4420 0029141 128.6603 231.6908 14.85563708577038
ORBCOMM FM104           
1 40090U 14040E   25079.57777457  .00001952  00000+0  47230-3 0  9999
2 40090  47.0030 108.2675 0015974 163.7229 196.4172 14.56435562567700
